[{"OBJECT_NAME":"ION SCV-017","OBJECT_ID":"2025-052W","EPOCH":"2026-03-09T17:11:44.577024","MEAN_MOTION":15.26881798,"ECCENTRICITY":0.0023746,"INCLINATION":97.4016,"RA_OF_ASC_NODE":324.7516,"ARG_OF_PERICENTER":44.9875,"MEAN_ANOMALY":315.3282,"EPHEMERIS_TYPE":0,"CLASSIFICATION_TYPE":"U","NORAD_CAT_ID":63230,"ELEMENT_SET_NO":999,"REV_AT_EPOCH":5485,"BSTAR":0.00024539061,"MEAN_MOTION_DOT":6.457e-5,"MEAN_MOTION_DDOT":0},{"OBJECT_NAME":"STARLINK-35158","OBJECT_ID":"2025-257B","EPOCH":"2026-03-09T17:23:05.467776","MEAN_MOTION":15.30195403,"ECCENTRICITY":0.00010004,"INCLINATION":53.1596,"RA_OF_ASC_NODE":217.2318,"ARG_OF_PERICENTER":90.2549,"MEAN_ANOMALY":269.8567,"EPHEMERIS_TYPE":0,"CLASSIFICATION_TYPE":"U","NORAD_CAT_ID":66381,"ELEMENT_SET_NO":999,"REV_AT_EPOCH":1973,"BSTAR":0.00077466163,"MEAN_MOTION_DOT":0.00022651,"MEAN_MOTION_DDOT":0}]
