ION SCV-017             
1 63230U 25052W   26068.71648816  .00006457  00000+0  24539-3 0  9998
2 63230  97.4016 324.7516 0023746  44.9875 315.3282 15.26881798 54851
STARLINK-35158          
1 66381U 25257B   26068.72436884  .00022651  00000+0  77466-3 0  9997
2 66381  53.1596 217.2318 0001000  90.2549 269.8567 15.30195403 19733
